IRIDIUM 159             
1 43578U 18061K   23340.54081829  .00000353  00000+0  11908-3 0  9994
2 43578  86.3964  82.7326 0001895  95.4477 264.6935 14.34215166280998
IRIDIUM 180             
1 43922U 19002A   23340.54031311  .00000320  00000+0  10706-3 0  9993
2 43922  86.3985  19.6072 0001948  91.4402 268.7017 14.34218133256608
IRIDIUM 176             
1 43923U 19002B   23340.54576023  .00001112  00000+0  17223-3 0  9999
2 43923  86.6114  19.6368 0002317  92.8922 267.2560 14.72296787263357
IRIDIUM 168             
1 43924U 19002C   23340.53397165  .00000290  00000+0  96326-4 0  9995
2 43924  86.3990  19.6615 0002048  94.5630 265.5800 14.34215499256582
IRIDIUM 173             
1 43925U 19002D   23340.52128377  .00000305  00000+0  10200-3 0  9995
2 43925  86.3985  19.5934 0002098  96.7432 263.4003 14.34218280256560
IRIDIUM 169             
1 43926U 19002E   23340.27332391  .00000483  00000+0  15136-3 0  9991
2 43926  86.4239  51.3023 0004579 126.7953 233.3667 14.38621150257397
IRIDIUM 172             
1 43927U 19002F   23340.51493684  .00000320  00000+0  10724-3 0  9990
2 43927  86.4025  19.6080 0002595 102.3554 257.7932 14.34215301256571
IRIDIUM 175             
1 43928U 19002G   23340.53976472  .00001195  00000+0  18562-3 0  9993
2 43928  86.1517   3.7355 0002416  93.8550 266.2943 14.72220561263342
